[{"OBJECT_NAME":"STARLINK-30315","OBJECT_ID":"2023-129L","EPOCH":"2026-03-09T13:28:39.272160","MEAN_MOTION":15.27390045,"ECCENTRICITY":0.000141,"INCLINATION":43.0003,"RA_OF_ASC_NODE":118.5703,"ARG_OF_PERICENTER":274.4089,"MEAN_ANOMALY":85.6601,"EPHEMERIS_TYPE":0,"CLASSIFICATION_TYPE":"U","NORAD_CAT_ID":57708,"ELEMENT_SET_NO":999,"REV_AT_EPOCH":14066,"BSTAR":0.0035796,"MEAN_MOTION_DOT":0.00098995,"MEAN_MOTION_DDOT":0},{"OBJECT_NAME":"OBJECT D","OBJECT_ID":"2024-174D","EPOCH":"2026-03-10T00:15:10.483200","MEAN_MOTION":15.28039787,"ECCENTRICITY":0.00110644,"INCLINATION":97.4441,"RA_OF_ASC_NODE":80.4677,"ARG_OF_PERICENTER":212.9968,"MEAN_ANOMALY":147.0582,"EPHEMERIS_TYPE":0,"CLASSIFICATION_TYPE":"U","NORAD_CAT_ID":61241,"ELEMENT_SET_NO":999,"REV_AT_EPOCH":8076,"BSTAR":0.00036340099,"MEAN_MOTION_DOT":9.884e-5,"MEAN_MOTION_DDOT":0}]
